HYPERFIELD-1A           
1 60562U 24149CY  26068.76488211  .00008569  00000+0  30052-3 0  9998
2 60562  97.3842 149.5066 0003865 313.7844  46.3076 15.29681349 86836
STARLINK-32826          
1 62970U 25029Y   26068.70541742  .00038165  00000+0  12937-2 0  9990
2 62970  53.1603 232.1196 0001583  32.5798 327.5300 15.30208080 61328
